CCSDS_OEM_VERS = 1.0
CREATION_DATE  = 2017-05-11T11:42:02
ORIGINATOR     = GMAT USER

META_START
OBJECT_NAME          = MOPSSat_alt_35785_km_RAAN_180_129
OBJECT_ID            = SatId
CENTER_NAME          = Earth
REF_FRAME            = EME2000
TIME_SYSTEM          = UTC
START_TIME           = 2017-01-01T00:00:00.000
USEABLE_START_TIME   = 2017-01-01T00:00:00.000
USEABLE_STOP_TIME    = 2017-01-02T00:00:00.000
STOP_TIME            = 2017-01-02T00:00:00.000
INTERPOLATION        = Lagrange
INTERPOLATION_DEGREE = 7 
META_STOP


                                                                                   

2017-01-01T22:18:20.000  -2.225960480992057e+04   2.246513375186024e+04  -1.964965064308298e+03  -2.293825573801117e+00  -3.219359952901806e+00   2.820273048949063e-01
2017-01-01T22:18:30.000  -2.228252911242698e+04   2.243292608230594e+04  -1.962143560269411e+03  -2.291034182457898e+00  -3.222173642734454e+00   2.822734752220720e-01
2017-01-01T22:18:40.000  -2.230542547740041e+04   2.240069028711116e+04  -1.959319595514848e+03  -2.288238099080039e+00  -3.224985124419294e+00   2.825194518338518e-01
2017-01-01T22:18:50.000  -2.232829385802772e+04   2.236842638825593e+04  -1.956493171972876e+03  -2.285437324064384e+00  -3.227794388534368e+00   2.827652339051647e-01
2017-01-01T22:19:00.000  -2.235113420749799e+04   2.233613440781724e+04  -1.953664291580252e+03  -2.282631857830530e+00  -3.230601425648340e+00   2.830108206101100e-01
2017-01-01T22:19:10.000  -2.237394647899477e+04   2.230381436798107e+04  -1.950832956283271e+03  -2.279821700821935e+00  -3.233406226319549e+00   2.832562111218843e-01
2017-01-01T22:19:20.000  -2.239673062567173e+04   2.227146629107276e+04  -1.947999168040445e+03  -2.277006853508479e+00  -3.236208781093132e+00   2.835014046125300e-01
2017-01-01T22:19:30.000  -2.241948660063694e+04   2.223909019958522e+04  -1.945162928824953e+03  -2.274187316389121e+00  -3.239009080498998e+00   2.837464002527589e-01
2017-01-01T22:19:40.000  -2.244221435701902e+04   2.220668611608284e+04  -1.942324240616237e+03  -2.271363089983528e+00  -3.241807115060064e+00   2.839911972126709e-01
2017-01-01T22:19:50.000  -2.246491384767071e+04   2.217425406363134e+04  -1.939483105437653e+03  -2.268534174869802e+00  -3.244602875255654e+00   2.842357946585533e-01
2017-01-01T22:20:00.000  -2.248758502552935e+04   2.214179406527776e+04  -1.936639525310916e+03  -2.265700571638986e+00  -3.247396351566012e+00   2.844801917567749e-01
2017-01-01T22:20:10.000  -2.251022784348273e+04   2.210930614424359e+04  -1.933793502273024e+03  -2.262862280912013e+00  -3.250187534455797e+00   2.847243876723421e-01
2017-01-01T22:20:20.000  -2.253284225489055e+04   2.207679032317799e+04  -1.930945038310828e+03  -2.260019303274527e+00  -3.252976414438381e+00   2.849683815745236e-01
2017-01-01T22:20:30.000  -2.255542821306460e+04   2.204424662490256e+04  -1.928094135426287e+03  -2.257171639341959e+00  -3.255762982011801e+00   2.852121726312479e-01
2017-01-01T22:20:40.000  -2.257798567138723e+04   2.201167507224331e+04  -1.925240795621739e+03  -2.254319289744951e+00  -3.258547227673390e+00   2.854557600103824e-01
2017-01-01T22:20:50.000  -2.260051458301561e+04   2.197907568844865e+04  -1.922385020936527e+03  -2.251462255165690e+00  -3.261329141883444e+00   2.856991428765553e-01
2017-01-01T22:21:00.000  -2.262301490110288e+04   2.194644849688028e+04  -1.919526813419910e+03  -2.248600536311220e+00  -3.264108715092391e+00   2.859423203935327e-01
2017-01-01T22:21:10.000  -2.264548657879676e+04   2.191379352101172e+04  -1.916666175130944e+03  -2.245734133913222e+00  -3.266885937740709e+00   2.861852917242105e-01
2017-01-01T22:21:20.000  -2.266792956902752e+04   2.188111078474607e+04  -1.913803108166313e+03  -2.242863048756267e+00  -3.269660800232594e+00   2.864280560283118e-01
2017-01-01T22:21:30.000  -2.269034382479572e+04   2.184840031198970e+04  -1.910937614622978e+03  -2.239987281640151e+00  -3.272433292971687e+00   2.866706124655125e-01
2017-01-01T22:21:40.000  -2.271272929905859e+04   2.181566212681980e+04  -1.908069696612869e+03  -2.237106833394732e+00  -3.275203406347048e+00   2.869129601942130e-01
2017-01-01T22:21:50.000  -2.273508594523575e+04   2.178289625274586e+04  -1.905199356198175e+03  -2.234221704815012e+00  -3.277971130795731e+00   2.871550983770146e-01
2017-01-01T22:22:00.000  -2.275741371670372e+04   2.175010271344814e+04  -1.902326595456046e+03  -2.231331896726124e+00  -3.280736456740303e+00   2.873970261752508e-01
2017-01-01T22:22:10.000  -2.277971256691107e+04   2.171728153261127e+04  -1.899451416464009e+03  -2.228437409968786e+00  -3.283499374603076e+00   2.876387427502350e-01
2017-01-01T22:22:20.000  -2.280198244908585e+04   2.168443273434564e+04  -1.896573821336882e+03  -2.225538245436208e+00  -3.286259874770059e+00   2.878802472601052e-01
2017-01-01T22:22:30.000  -2.282422331645426e+04   2.165155634287572e+04  -1.893693812199484e+03  -2.222634404046971e+00  -3.289017947617927e+00   2.881215388621836e-01
2017-01-01T22:22:40.000  -2.284643512223940e+04   2.161865238253876e+04  -1.890811391186498e+03  -2.219725886744827e+00  -3.291773583513934e+00   2.883626167129697e-01
2017-01-01T22:22:50.000  -2.286861781945174e+04   2.158572087810478e+04  -1.887926560470520e+03  -2.216812694527342e+00  -3.294526772789817e+00   2.886034799658559e-01
2017-01-01T22:23:00.000  -2.289077136117335e+04   2.155276185434707e+04  -1.885039322224429e+03  -2.213894828407691e+00  -3.297277505777222e+00   2.888441277742290e-01
2017-01-01T22:23:10.000  -2.291289570044364e+04   2.151977533621429e+04  -1.882149678636462e+03  -2.210972289429992e+00  -3.300025772793532e+00   2.890845592902282e-01
2017-01-01T22:23:20.000  -2.293499079076738e+04   2.148676134807374e+04  -1.879257631843924e+03  -2.208045078602321e+00  -3.302771564204988e+00   2.893247736702682e-01
2017-01-01T22:23:30.000  -2.295705658560559e+04   2.145371991446985e+04  -1.876363183999639e+03  -2.205113196963934e+00  -3.305514870363504e+00   2.895647700695115e-01
2017-01-01T22:23:40.000  -2.297909303850758e+04   2.142065105992883e+04  -1.873466337254826e+03  -2.202176645568031e+00  -3.308255681623077e+00   2.898045476433039e-01
2017-01-01T22:23:50.000  -2.300110010275605e+04   2.138755480948362e+04  -1.870567093805090e+03  -2.199235425528171e+00  -3.310993988295806e+00   2.900441055433272e-01
2017-01-01T22:24:00.000  -2.302307773166085e+04   2.135443118824125e+04  -1.867665455852527e+03  -2.196289537980149e+00  -3.313729780688349e+00   2.902834429207873e-01
2017-01-01T22:24:10.000  -2.304502587849156e+04   2.132128022148268e+04  -1.864761425614461e+03  -2.193338984090848e+00  -3.316463049093581e+00   2.905225589256866e-01
2017-01-01T22:24:20.000  -2.306694449650561e+04   2.128810193462575e+04  -1.861855005320210e+03  -2.190383765055143e+00  -3.319193783794059e+00   2.907614527071252e-01
2017-01-01T22:24:30.000  -2.308883353895917e+04   2.125489635320513e+04  -1.858946197209315e+03  -2.187423882094047e+00  -3.321921975063471e+00   2.910001234134286e-01
2017-01-01T22:24:40.000  -2.311069295913363e+04   2.122166350283276e+04  -1.856035003528087e+03  -2.184459336451225e+00  -3.324647613169966e+00   2.912385701924389e-01
2017-01-01T22:24:50.000  -2.313252271034976e+04   2.118840340918080e+04  -1.853121426528108e+03  -2.181490129391654e+00  -3.327370688377894e+00   2.914767921916672e-01
2017-01-01T22:25:00.000  -2.315432274599159e+04   2.115511609794072e+04  -1.850205468462647e+03  -2.178516262197863e+00  -3.330091190950894e+00   2.917147885585633e-01
2017-01-01T22:25:10.000  -2.317609301944133e+04   2.112180159492520e+04  -1.847287131595590e+03  -2.175537736179142e+00  -3.332809111143765e+00   2.919525584398051e-01
2017-01-01T22:25:20.000  -2.319783348436344e+04   2.108845992562666e+04  -1.844366418162759e+03  -2.172554552631903e+00  -3.335524439238096e+00   2.921901009844147e-01
2017-01-01T22:25:30.000  -2.321954409436028e+04   2.105509111575178e+04  -1.841443330418750e+03  -2.169566712887737e+00  -3.338237165499174e+00   2.924274153399898e-01
2017-01-01T22:25:40.000  -2.324122480310286e+04   2.102169519101993e+04  -1.838517870619259e+03  -2.166574218295374e+00  -3.340947280192391e+00   2.926645006541386e-01
2017-01-01T22:25:50.000  -2.326287556382400e+04   2.098827217794379e+04  -1.835590041089478e+03  -2.163577070290663e+00  -3.343654773519923e+00   2.929013560689394e-01
2017-01-01T22:26:00.000  -2.328449632982596e+04   2.095482210304903e+04  -1.832659844155730e+03  -2.160575270326738e+00  -3.346359635684198e+00   2.931379807264947e-01
2017-01-01T22:26:10.000  -2.330608705434944e+04   2.092134499307560e+04  -1.829727282163103e+03  -2.157568819892058e+00  -3.349061856871578e+00   2.933743737675019e-01
2017-01-01T22:26:20.000  -2.332764769092190e+04   2.088784087444620e+04  -1.826792357428899e+03  -2.154557720462985e+00  -3.351761427295858e+00   2.936105343350604e-01
2017-01-01T22:26:30.000  -2.334917819307008e+04   2.085430977370452e+04  -1.823855072281006e+03  -2.151541973542926e+00  -3.354458337162450e+00   2.938464615715364e-01
2017-01-01T22:26:40.000  -2.337067851438662e+04   2.082075171741440e+04  -1.820915429049078e+03  -2.148521580653393e+00  -3.357152576676713e+00   2.940821546192942e-01
2017-01-01T22:26:50.000  -2.339214860850287e+04   2.078716673219738e+04  -1.817973430067815e+03  -2.145496543337268e+00  -3.359844136040679e+00   2.943176126204066e-01
2017-01-01T22:27:00.000  -2.341358842907883e+04   2.075355484475311e+04  -1.815029077678765e+03  -2.142466863160813e+00  -3.362533005451748e+00   2.945528347165434e-01
2017-01-01T22:27:10.000  -2.343499792977764e+04   2.071991608189963e+04  -1.812082374233835e+03  -2.139432541717341e+00  -3.365219175099539e+00   2.947878200486951e-01
2017-01-01T22:27:20.000  -2.345637706425219e+04   2.068625047059070e+04  -1.809133322096818e+03  -2.136393580628700e+00  -3.367902635164298e+00   2.950225677570330e-01
